start=new Date('2022-02-26T00:00:00.000Z').valueOf();
sats=[{"PERIOD":"91.537","SITE":"AFETR","CLASSIFICATION_TYPE":"U","DECAY_DATE":null,"ARG_OF_PERICENTER":"54.6701","MEAN_ANOMALY":"273.0070","TIME_SYSTEM":"UTC","TLE_LINE2":"2 51469  53.2162  62.6532 0001229  54.6701 273.0070 15.73137083  2871","PERIAPSIS":"349.113","TLE_LINE1":"1 51469U 22010P   22056.91667824  .00088963  00000-0  63329-3 0  9998","REF_FRAME":"TEME","ECCENTRICITY":"0.00012290","OBJECT_NAME":"STARLINK-3182","NORAD_CAT_ID":"51469","LAUNCH_DATE":"2022-02-03","RA_OF_ASC_NODE":"62.6532","MEAN_MOTION_DDOT":"0.0000000000000","MEAN_MOTION_DOT":"0.00088963","INCLINATION":"53.2162","RCS_SIZE":"LARGE","SEMIMAJOR_AXIS":"6728.075","ELEMENT_SET_NO":"999","FILE":"3323947","APOAPSIS":"350.766","CENTER_NAME":"EARTH","EPOCH":"2022-02-25T22:00:00.999936","OBJECT_ID":"2022-010P","GP_ID":"197035831","EPHEMERIS_TYPE":"0","COUNTRY_CODE":"US","REV_AT_EPOCH":"287","OBJECT_TYPE":"PAYLOAD","MEAN_ELEMENT_THEORY":"SGP4","BSTAR":"0.00063329000000","MEAN_MOTION":"15.73137083"},{"MEAN_MOTION_DDOT":"0.0000000000000","SEMIMAJOR_AXIS":"6710.356","RCS_SIZE":"LARGE","INCLINATION":"53.2125","MEAN_MOTION_DOT":"-0.00397901","ELEMENT_SET_NO":"999","FILE":"3321114","APOAPSIS":"333.446","REF_FRAME":"TEME","ECCENTRICITY":"0.00018250","OBJECT_NAME":"STARLINK-3165","NORAD_CAT_ID":"51471","RA_OF_ASC_NODE":"65.2541","LAUNCH_DATE":"2022-02-03","REV_AT_EPOCH":"469","COUNTRY_CODE":"US","EPHEMERIS_TYPE":"0","BSTAR":"-0.00225680000000","OBJECT_TYPE":"PAYLOAD","MEAN_ELEMENT_THEORY":"SGP4","MEAN_MOTION":"15.79371837","CENTER_NAME":"EARTH","OBJECT_ID":"2022-010R","EPOCH":"2022-02-25T02:25:56.325504","GP_ID":"196922795","DECAY_DATE":null,"ARG_OF_PERICENTER":"47.4386","MEAN_ANOMALY":"312.6791","PERIOD":"91.175","CLASSIFICATION_TYPE":"U","SITE":"AFETR","TLE_LINE2":"2 51471  53.2125  65.2541 0001825  47.4386 312.6791 15.79371837  4698","PERIAPSIS":"330.997","TLE_LINE1":"1 51471U 22010R   22056.10134636 -.00397901  00000-0 -22568-2 0  9998","TIME_SYSTEM":"UTC"},{"EPHEMERIS_TYPE":"0","COUNTRY_CODE":"US","REV_AT_EPOCH":"288","OBJECT_TYPE":"PAYLOAD","MEAN_ELEMENT_THEORY":"SGP4","BSTAR":"0.00062310000000","MEAN_MOTION":"15.73148147","CENTER_NAME":"EARTH","EPOCH":"2022-02-25T22:00:00.999936","OBJECT_ID":"2022-010S","GP_ID":"197035996","MEAN_MOTION_DDOT":"0.0000000000000","INCLINATION":"53.2161","MEAN_MOTION_DOT":"0.00087549","RCS_SIZE":"LARGE","SEMIMAJOR_AXIS":"6728.043","ELEMENT_SET_NO":"999","FILE":"3323947","APOAPSIS":"350.890","REF_FRAME":"TEME","ECCENTRICITY":"0.00014600","OBJECT_NAME":"STARLINK-3415","NORAD_CAT_ID":"51472","LAUNCH_DATE":"2022-02-03","RA_OF_ASC_NODE":"62.4753","TLE_LINE2":"2 51472  53.2161  62.4753 0001460  49.4009   4.2002 15.73148147  2880","PERIAPSIS":"348.926","TLE_LINE1":"1 51472U 22010S   22056.91667824  .00087549  00000-0  62310-3 0  9990","TIME_SYSTEM":"UTC","DECAY_DATE":null,"ARG_OF_PERICENTER":"49.4009","MEAN_ANOMALY":"4.2002","PERIOD":"91.536","SITE":"AFETR","CLASSIFICATION_TYPE":"U"}];
